P/2015 W2 (Catalina),e,11.6078,294.2087,117.4992,7.292326,0.0500501,0.63467516,116.4494,02/14.0/2022,2000,g 13.0,4.0
# From MPEC 2021-N06
P/2015 X1 (PANSTARRS),e,12.1526,161.7590,218.8174,3.636169,0.1421471,0.41930688,330.8808,02/14.0/2022,2000,g 16.0,4.0
# From MPEC 2021-P47
C/2015 XY1 (Lemmon),h,04/26.3900/2018,148.8521,281.5986,196.1643,1.000947,7.922889,2000,5.5,4.0
# From MPC 97498
P/2015 X3 (PANSTARRS),e,24.3984,77.2832,306.7060,5.006634,0.0879803,0.43962359,209.3636,02/14.0/2022,2000,g 15.0,4.0
# From MPC119995
C/2015 X5 (PANSTARRS),h,12/28.0634/2017,124.3112,122.3311,27.5826,1.000257,6.794697,2000,7.5,4.0
# From MPC115881
P/2015 X6 (PANSTARRS),e,4.5645,106.9411,329.8219,2.753251,0.2157423,0.17280797,104.6266,02/14.0/2022,2000,g 16.0,4.0
# From MPEC 2021-P47
C/2016 A1 (PANSTARRS),h,11/21.5250/2017,121.2078,128.1944,10.1472,1.000058,5.318314,2000,6.0,4.0
# From MPC100282
P/2016 A2 (Christensen),e,26.4035,291.6175,141.3427,4.753005,0.0951156,0.27060917,231.7710,02/14.0/2022,2000,g 11.5,4.0
# From MPC115881
P/2016 A3 (PANSTARRS),e,8.5102,187.2366,340.9924,7.884973,0.0445147,0.38625713,78.0633,02/14.0/2022,2000,g 10.0,4.0
# From MPC102098
P/2016 A7 (PANSTARRS),e,16.6066,221.4969,352.5834,5.033911,0.0872662,0.56453057,190.5980,02/14.0/2022,2000,g 16.0,4.0
# From MPC109143
P/2016 BA14 (PANSTARRS),e,18.8943,180.5220,351.9046,3.025151,0.1873197,0.66511904,45.2719,02/14.0/2022,2000,g 21.0,4.0
# From MPC110494
C/2016 E1 (PANSTARRS),h,06/04.0051/2017,131.8725,233.1203,47.4611,1.006266,8.174831,2000,6.5,4.0
# From MPEC 2021-P47
P/2016 G1 (PANSTARRS),e,10.9714,204.0229,111.1148,2.582303,0.2375162,0.21098259,78.1740,02/14.0/2022,2000,g 14.0,4.0
# From MPEC 2017-D91
P/2016 J1-A (PANSTARRS),e,14.3287,199.8112,46.9861,3.172137,0.1744521,0.22775111,358.8317,02/14.0/2022,2000,g 16.5,4.0
# From MPEC 2017-A77
P/2016 J1-B (PANSTARRS),e,14.3315,199.8161,46.8772,3.171767,0.1744826,0.22760166,358.9694,02/14.0/2022,2000,g 17.0,4.0
# From MPEC 2022-C56
C/2016 M1 (PANSTARRS),e,90.9388,92.2359,209.9312,51649,0.0000001,0.99995714,0.0000,08/10.5383/2018,2000,g  5.0,4.0
# From MPEC 2021-N06
C/2016 N4 (MASTER),e,72.6487,353.9904,55.9511,4477,0.0000033,0.99928594,0.0000,09/17.2328/2017,2000,g  8.5,4.0
# From MPEC 2021-P47
C/2016 N6 (PANSTARRS),e,105.8457,298.9641,162.6429,1125,0.0000261,0.99763380,0.0000,07/17.7730/2018,2000,g  7.0,4.0
# From MPC102099
P/2016 P1 (PANSTARRS),e,24.4553,319.5661,270.1541,3.194194,0.1726483,0.28917255,42.9127,02/14.0/2022,2000,g 15.0,4.0
# From MPEC 2022-CN4
C/2016 Q2 (PANSTARRS),h,05/12.1144/2021,109.3878,322.2985,84.5437,1.001762,7.081923,2000,6.0,4.0
# From MPC102955
C/2016 Q4 (Kowalski),e,7.2517,271.2963,99.5487,16.98325,0.0140823,0.58250608,20.7889,02/14.0/2022,2000,g  7.0,4.0
# From MPEC 2021-N06
C/2016 R2 (PANSTARRS),e,58.2749,80.5377,33.1173,481.7568,0.0000932,0.99460435,0.0000,05/09.0001/2018,2000,g  7.0,4.0
# From MPC109144
P/2016 R4 (Gibbs),e,10.8774,168.2623,174.0826,5.332049,0.0800503,0.47639761,162.6385,02/14.0/2022,2000,g 12.5,4.0
# From MPC105543
P/2016 S1 (PANSTARRS),e,94.7075,227.6031,273.2752,8.277622,0.0413853,0.71003574,74.3254,02/14.0/2022,2000,g 12.0,4.0
# From MPC105238
C/2016 T1 (Matheny),e,129.8510,56.4163,137.5375,126.4192,0.0006934,0.98176596,0.0000,02/01.8048/2017,2000,g 14.5,4.0
# From MPC110082
C/2016 T3 (PANSTARRS),e,22.6995,271.6898,194.5895,129.3818,0.0006697,0.97958093,0.0000,09/06.5882/2017,2000,g 10.5,4.0
# From MPC106345
C/2016 VZ18 (PANSTARRS),e,24.0097,98.9310,36.3425,157.5046,0.0004986,0.99420686,0.0000,03/04.9060/2017,2000,g 19.5,4.0
# From MPC106345
P/2016 WM48 (Lemmon),e,117.5187,59.9161,36.1091,8.166246,0.0422348,0.78359037,76.7294,02/14.0/2022,2000,g 15.0,4.0
# From MPEC 2021-P47
C/2016 X1 (Lemmon),e,26.4540,256.3755,224.4767,1265,0.0000219,0.99402439,0.0000,04/27.9264/2019,2000,g  6.0,4.0
# From MPC108594
C/2017 A1 (PANSTARRS),e,49.8097,121.0207,1.9471,75.11506,0.0015140,0.96957070,2.6268,02/14.0/2022,2000,g 13.0,4.0
# From MPC108594
C/2017 A3 (Elenin),e,98.5056,97.8567,303.9326,43.35299,0.0034528,0.91140410,6.3532,02/14.0/2022,2000,g  9.5,4.0
# From MPC114598
C/2017 AB5 (PANSTARRS),e,32.4545,42.6123,78.2965,2310,0.0000089,0.99601415,0.0000,02/14.5541/2018,2000,g  5.5,4.0
# From MPEC 2022-A21
C/2017 B3 (LINEAR),h,02/02.1601/2019,54.1613,2.1766,284.8158,1.000940,3.925999,2000,6.0,4.0
# From MPC103847
P/2017 B4 (PANSTARRS),e,20.0584,121.4578,11.0197,4.410520,0.1064068,0.36495152,359.9130,01/05.0/2017,2000,g 14.5,4.0
# From MPC104793
P/2017 D1 (Fuls),e,20.7600,82.1820,7.9774,4.828929,0.0928812,0.43646698,191.5309,02/14.0/2022,2000,g 14.0,4.0
# From MPC112391
C/2017 D2 (Barros),e,31.2578,330.9500,334.6228,10993,0.0000009,0.99977286,0.0000,07/14.7051/2017,2000,g 11.0,4.0
# From MPC114598
C/2017 D3 (ATLAS),h,04/27.4518/2017,125.5907,186.7133,340.8160,1.002090,4.966469,2000,8.0,4.0
# From MPC110495
P/2017 D4 (PANSTARRS),e,10.5382,264.9382,212.1955,7.554861,0.0474640,0.62850100,94.3731,02/14.0/2022,2000,g 13.0,4.0
# From MPC106346
C/2017 E1 (Borisov),h,04/10.4452/2017,14.5713,142.5700,152.7795,1.003237,0.906550,2000,14.0,4.0
# From MPEC 2021-P47
C/2017 E3 (PANSTARRS),h,06/07.3675/2017,70.6588,220.7882,334.4681,1.005969,5.936556,2000,6.5,4.0
# From MPC105239
C/2017 E4 (Lovejoy),h,04/23.3747/2017,87.9836,222.8099,87.0853,1.001485,0.491811,2000,17.0,4.0
# From MPC111769
C/2017 F1 (Lemmon),h,11/28.9718/2017,146.4610,158.7884,64.7259,1.002162,4.497453,2000,10.5,4.0
# From MPC114598
C/2017 F2 (PANSTARRS),h,11/26.2448/2017,42.5458,38.6936,134.9547,1.002358,6.928284,2000,7.5,4.0
# From MPC104794
P/2017 G1 (PANSTARRS),e,4.7787,249.6465,224.4373,7.280193,0.0501753,0.65315872,106.3301,02/14.0/2022,2000,g 13.5,4.0
# From MPC108595
P/2017 G2 (PANSTARRS),e,47.9520,79.8053,105.4875,8.057503,0.0430927,0.64765595,73.6854,02/14.0/2022,2000,g 13.0,4.0
# From MPEC 2021-P47
C/2017 G3 (PANSTARRS),e,159.0354,279.4574,73.0329,312.5736,0.0001784,0.99173806,0.0000,04/16.3794/2017,2000,g 14.0,4.0
# From MPC115882
C/2017 K1 (PANSTARRS),h,03/17.9561/2018,154.0202,225.7067,4.4346,1.003300,7.287467,2000,7.0,4.0
# From MPEC 2022-CN4
C/2017 K2 (PANSTARRS),h,12/19.6893/2022,87.5591,88.2365,236.1932,1.000715,1.797103,2000,1.5,4.0
# From MPEC 2021-N06
P/2017 K3 (Gasparovic),e,4.2730,354.2878,253.4449,5.583872,0.0746966,0.57967756,128.5662,02/14.0/2022,2000,g 14.5,4.0
# From MPC114598
C/2017 K4 (ATLAS),e,16.6727,298.8910,15.3134,28.65341,0.0064260,0.90727504,9.6232,02/14.0/2022,2000,g 10.0,4.0
# From MPEC 2021-P47
C/2017 K5 (PANSTARRS),h,03/27.2138/2020,82.2378,102.3742,172.0494,1.005556,7.682619,2000,5.0,4.0
# From MPC114599
C/2017 K6 (Jacques),e,57.2308,84.9591,303.7722,1155,0.0000251,0.99827248,0.0000,01/03.8092/2018,2000,g 11.0,4.0
# From MPEC 2021-P47
C/2017 M3 (PANSTARRS),e,77.5887,7.0375,110.2809,166.8845,0.0004572,0.97212540,0.0000,04/28.3293/2017,2000,g 10.5,4.0
# From MPEC 2021-Y10
C/2017 M4 (ATLAS),h,01/17.9578/2019,105.6471,65.9225,167.6165,1.001392,3.253461,2000,6.0,4.0
# From MPC118841
C/2017 M5 (TOTAS),h,06/04.4638/2018,15.8683,216.2887,92.8261,1.005421,6.000005,2000,6.5,4.0
# From MPC114599
C/2017 O1 (ASASSN),e,39.9629,25.7266,20.8371,367.9293,0.0001397,0.99594575,0.0000,10/15.4880/2017,2000,g 11.0,4.0
# From MPC114599
P/2017 P1 (PANSTARRS),e,7.6919,221.3824,122.5340,7.906166,0.0443359,0.31102011,59.1226,02/14.0/2022,2000,g 10.0,4.0
# From MPC114599
C/2017 P2 (PANSTARRS),e,50.0484,165.4579,132.4678,2493,0.0000079,0.99900841,0.0000,12/06.2965/2017,2000,g 10.0,4.0
# From MPC114599
P/2017 R1 (PANSTARRS),e,2.5745,143.6167,178.7040,4.135059,0.1172145,0.19564138,207.4022,02/14.0/2022,2000,g 13.5,4.0
# From MPC108595
C/2017 S2 (PANSTARRS),e,12.6713,62.3476,306.0678,20.61796,0.0105277,0.82476488,17.1446,02/14.0/2022,2000,g 13.0,4.0
# From MPC114599
C/2017 S3 (PANSTARRS),h,08/16.3596/2018,99.2039,171.3042,255.8038,1.000068,0.206589,2000,11.0,4.0
# From MPC109591
C/2017 S6 (Catalina),h,02/26.1618/2018,152.8668,131.0679,134.9230,1.000797,1.548823,2000,12.5,4.0
# From MPC114599
C/2017 S7 (Lemmon),e,124.2247,262.7431,187.5223,7750,0.0000014,0.99901847,0.0000,05/23.9874/2017,2000,g  7.0,4.0
# From MPC114599
P/2017 S8 (PANSTARRS),e,29.8551,191.5263,254.7936,2.780333,0.2125978,0.39115381,314.4470,02/14.0/2022,2000,g 16.0,4.0
# From MPC107050
P/2017 S9 (PANSTARRS),e,14.1440,146.2228,237.6778,3.154032,0.1759563,0.30542479,293.3928,02/14.0/2022,2000,g 17.0,4.0
# From MPC114600
C/2017 T1 (Heinze),e,96.8781,102.4417,96.9994,11775,0.0000008,0.99995032,0.0000,02/20.8022/2018,2000,g 14.5,4.0
# From MPEC 2021-Y10
C/2017 T2 (PANSTARRS),e,57.2358,64.3841,92.9794,1973,0.0000113,0.99918113,0.0000,05/04.8354/2020,2000,g  5.0,4.0
# From MPC114600
C/2017 T3 (ATLAS),e,88.1680,230.1600,246.8213,1182,0.0000242,0.99930251,0.0000,07/18.8985/2018,2000,g 10.0,4.0
# From MPC115882
P/2017 TW13 (Lemmon),e,44.8497,322.2904,119.9322,7.138517,0.0516764,0.70980461,68.9270,02/14.0/2022,2000,g 15.0,2.0
# From MPC114600
C/2017 U2 (Fuls),e,95.3884,149.7087,147.8569,2765,0.0000068,0.99757198,0.0000,08/28.1816/2017,2000,g  9.0,4.0
# From MPC114600
P/2017 U3 (PANSTARRS),e,15.9187,165.1108,296.5325,4.927274,0.0901144,0.09907439,93.4767,02/14.0/2022,2000,g 11.0,4.0
# From MPEC 2021-P47
C/2017 U4 (PANSTARRS),h,09/22.4640/2018,158.2079,245.9270,158.9870,1.000861,7.720876,2000,7.0,4.0
# From MPC114600
C/2017 U5 (PANSTARRS),e,18.9784,163.0863,261.9970,16.88934,0.0141999,0.74439372,21.5564,02/14.0/2022,2000,g 12.0,4.0
# From MPEC 2022-CN4
C/2017 U7 (PANSTARRS),h,09/14.5609/2019,142.5981,276.2495,326.3606,1.000765,6.425539,2000,8.3,2.0
# From MPC114600
C/2017 W2 (Leonard),e,98.2016,312.8314,168.9372,13.62908,0.0195886,0.71035149,30.6820,02/14.0/2022,2000,g 11.0,4.0
# From MPC114601
P/2017 W3 (Gibbs),e,18.1667,210.2442,327.8448,7.837603,0.0449189,0.50669048,65.0046,02/14.0/2022,2000,g 10.5,4.0
# From MPEC 2021-R75
C/2017 X1 (PANSTARRS),e,31.3178,251.1381,283.2279,31.14907,0.0056694,0.85013055,7.5998,02/14.0/2022,2000,g 10.0,4.0
# From MPC117069
